{"type": "FeatureCollection", "features": [ {"type": "Feature", "properties": {"norad_id": 42741, "name": "EUTELSAT 172B", "group": "eutelsat", "lat": -0.004953338701227415, "lon": -49.18706003794919, "alt_km": 35786.43436336766, "timestamp": "2025-12-12T03:50:52.088225+00:00", "meta": {"OBJECT_NAME": "EUTELSAT 172B", "OBJECT_ID": "2017-029B", "EPOCH": "2025-12-11T14:19:47.858880", "MEAN_MOTION": 1.00269732, "ECCENTRICITY": 5.32e-06, "INCLINATION": 0.0312, "RA_OF_ASC_NODE": 156.9432, "ARG_OF_PERICENTER": 127.6735, "MEAN_ANOMALY": 182.8823, "EPHEMERIS_TYPE": 0, "CLASSIFICATION_TYPE": "U", "NORAD_CAT_ID": 42741, "ELEMENT_SET_NO": 999, "REV_AT_EPOCH": 3185, "BSTAR": 0, "MEAN_MOTION_DOT": 1e-08, "MEAN_MOTION_DDOT": 0}, "tle": {"line1": "1 42741U 17029B   25345.59708170  .00000001  00000+0  00000+0 0  9992", "line2": "2 42741   0.0312 156.9432 0000053 127.6735 182.8823  1.00269732 31854"}}, "geometry": {"type": "Point", "coordinates": [-49.18706003794919, -0.004953338701227415]}}, {"type": "Feature", "properties": {"norad_id": 44334, "name": "EUTELSAT 7C", "group": "eutelsat", "lat": -0.03862459537038834, "lon": 145.76837405281788, "alt_km": 35788.08097560669, "timestamp": "2025-12-12T03:50:52.088237+00:00", "meta": {"OBJECT_NAME": "EUTELSAT 7C", "OBJECT_ID": "2019-034B", "EPOCH": "2025-12-11T13:32:29.890176", "MEAN_MOTION": 1.00271297, "ECCENTRICITY": 0.00032975, "INCLINATION": 0.0725, "RA_OF_ASC_NODE": 179.0974, "ARG_OF_PERICENTER": 64.396, "MEAN_ANOMALY": 47.1384, "EPHEMERIS_TYPE": 0, "CLASSIFICATION_TYPE": "U", "NORAD_CAT_ID": 44334, "ELEMENT_SET_NO": 999, "REV_AT_EPOCH": 495, "BSTAR": 0, "MEAN_MOTION_DOT": 5.5e-07, "MEAN_MOTION_DDOT": 0}, "tle": {"line1": "1 44334U 19034B   25345.56423484  .00000055  00000+0  00000+0 0  9998", "line2": "2 44334   0.0725 179.0974 0003297  64.3960  47.1384  1.00271297  4954"}}, "geometry": {"type": "Point", "coordinates": [145.76837405281788, -0.03862459537038834]}}, {"type": "Feature", "properties": {"norad_id": 44624, "name": "EUTELSAT 5 WEST B", "group": "eutelsat", "lat": 0.041148313967199396, "lon": 133.7900871277341, "alt_km": 35794.8733747209, "timestamp": "2025-12-12T03:50:52.088248+00:00", "meta": {"OBJECT_NAME": "EUTELSAT 5 WEST B", "OBJECT_ID": "2019-067A", "EPOCH": "2025-12-11T08:21:06.926976", "MEAN_MOTION": 1.00271596, "ECCENTRICITY": 0.00034153, "INCLINATION": 0.0628, "RA_OF_ASC_NODE": 346.4733, "ARG_OF_PERICENTER": 274.655, "MEAN_ANOMALY": 299.4597, "EPHEMERIS_TYPE": 0, "CLASSIFICATION_TYPE": "U", "NORAD_CAT_ID": 44624, "ELEMENT_SET_NO": 999, "REV_AT_EPOCH": 2255, "BSTAR": 0, "MEAN_MOTION_DOT": -3.6e-07, "MEAN_MOTION_DDOT": 0}, "tle": {"line1": "1 44624U 19067A   25345.34799684 -.00000036  00000+0  00000+0 0  9990", "line2": "2 44624   0.0628 346.4733 0003415 274.6550 299.4597  1.00271596 22550"}}, "geometry": {"type": "Point", "coordinates": [133.7900871277341, 0.041148313967199396]}}, {"type": "Feature", "properties": {"norad_id": 45027, "name": "EUTELSAT KONNECT", "group": "eutelsat", "lat": 0.05733331850893391, "lon": 145.99895040637213, "alt_km": 35791.79205609311, "timestamp": "2025-12-12T03:50:52.088266+00:00", "meta": {"OBJECT_NAME": "EUTELSAT KONNECT", "OBJECT_ID": "2020-005B", "EPOCH": "2025-12-11T13:32:44.865888", "MEAN_MOTION": 1.0026961, "ECCENTRICITY": 0.00016021, "INCLINATION": 0.0703, "RA_OF_ASC_NODE": 96.1722, "ARG_OF_PERICENTER": 189.5531, "MEAN_ANOMALY": 5.1776, "EPHEMERIS_TYPE": 0, "CLASSIFICATION_TYPE": "U", "NORAD_CAT_ID": 45027, "ELEMENT_SET_NO": 999, "REV_AT_EPOCH": 2245, "BSTAR": 0, "MEAN_MOTION_DOT": 5.6e-07, "MEAN_MOTION_DDOT": 0}, "tle": {"line1": "1 45027U 20005B   25345.56440817  .00000056  00000+0  00000+0 0  9998", "line2": "2 45027   0.0703  96.1722 0001602 189.5531   5.1776  1.00269610 22452"}}, "geometry": {"type": "Point", "coordinates": [145.99895040637213, 0.05733331850893391]}}, {"type": "Feature", "properties": {"norad_id": 49056, "name": "EUTELSAT QUANTUM", "group": "eutelsat", "lat": 0.00218276957731587, "lon": -173.5203914916454, "alt_km": 35785.04431516549, "timestamp": "2025-12-12T03:50:52.088279+00:00", "meta": {"OBJECT_NAME": "EUTELSAT QUANTUM", "OBJECT_ID": "2021-069B", "EPOCH": "2025-12-11T13:44:21.254208", "MEAN_MOTION": 1.00272079, "ECCENTRICITY": 0.00036725, "INCLINATION": 0.0191, "RA_OF_ASC_NODE": 30.9626, "ARG_OF_PERICENTER": 242.3718, "MEAN_ANOMALY": 60.9836, "EPHEMERIS_TYPE": 0, "CLASSIFICATION_TYPE": "U", "NORAD_CAT_ID": 49056, "ELEMENT_SET_NO": 999, "REV_AT_EPOCH": 1604, "BSTAR": 0, "MEAN_MOTION_DOT": 1.33e-06, "MEAN_MOTION_DDOT": 0}, "tle": {"line1": "1 49056U 21069B   25345.57246822  .00000133  00000+0  00000+0 0  9992", "line2": "2 49056   0.0191  30.9626 0003672 242.3718  60.9836  1.00272079 16049"}}, "geometry": {"type": "Point", "coordinates": [-173.5203914916454, 0.00218276957731587]}}, {"type": "Feature", "properties": {"norad_id": 53765, "name": "EUTELSAT KONNECT VHTS", "group": "eutelsat", "lat": 0.050369952419061635, "lon": 141.49797359163446, "alt_km": 35787.90855932251, "timestamp": "2025-12-12T03:50:52.088291+00:00", "meta": {"OBJECT_NAME": "EUTELSAT KONNECT VHTS", "OBJECT_ID": "2022-110A", "EPOCH": "2025-12-11T03:15:06.233184", "MEAN_MOTION": 1.00271355, "ECCENTRICITY": 0.00024632, "INCLINATION": 0.0669, "RA_OF_ASC_NODE": 100.3786, "ARG_OF_PERICENTER": 140.773, "MEAN_ANOMALY": 250.4291, "EPHEMERIS_TYPE": 0, "CLASSIFICATION_TYPE": "U", "NORAD_CAT_ID": 53765, "ELEMENT_SET_NO": 999, "REV_AT_EPOCH": 494, "BSTAR": 0, "MEAN_MOTION_DOT": 2.3e-07, "MEAN_MOTION_DDOT": 0}, "tle": {"line1": "1 53765U 22110A   25345.13548881  .00000023  00000+0  00000+0 0  9992", "line2": "2 53765   0.0669 100.3786 0002463 140.7730 250.4291  1.00271355  4945"}}, "geometry": {"type": "Point", "coordinates": [141.49797359163446, 0.050369952419061635]}}, {"type": "Feature", "properties": {"norad_id": 54048, "name": "EUTELSAT HOTBIRD 13F", "group": "eutelsat", "lat": -0.030336284599727058, "lon": 151.8366447005567, "alt_km": 35795.12941762538, "timestamp": "2025-12-12T03:50:52.088303+00:00", "meta": {"OBJECT_NAME": "EUTELSAT HOTBIRD 13F", "OBJECT_ID": "2022-134A", "EPOCH": "2025-12-11T13:34:22.211040", "MEAN_MOTION": 1.00269142, "ECCENTRICITY": 0.00022034, "INCLINATION": 0.0491, "RA_OF_ASC_NODE": 292.5693, "ARG_OF_PERICENTER": 64.5898, "MEAN_ANOMALY": 299.9666, "EPHEMERIS_TYPE": 0, "CLASSIFICATION_TYPE": "U", "NORAD_CAT_ID": 54048, "ELEMENT_SET_NO": 999, "REV_AT_EPOCH": 1149, "BSTAR": 0, "MEAN_MOTION_DOT": 9.4e-07, "MEAN_MOTION_DDOT": 0}, "tle": {"line1": "1 54048U 22134A   25345.56553485  .00000094  00000+0  00000+0 0  9994", "line2": "2 54048   0.0491 292.5693 0002203  64.5898 299.9666  1.00269142 11497"}}, "geometry": {"type": "Point", "coordinates": [151.8366447005567, -0.030336284599727058]}}, {"type": "Feature", "properties": {"norad_id": 54225, "name": "EUTELSAT HOTBIRD 13G", "group": "eutelsat", "lat": -0.04225418937886374, "lon": 151.79983572903285, "alt_km": 35779.588922535375, "timestamp": "2025-12-12T03:50:52.088315+00:00", "meta": {"OBJECT_NAME": "EUTELSAT HOTBIRD 13G", "OBJECT_ID": "2022-146A", "EPOCH": "2025-12-11T13:34:22.211040", "MEAN_MOTION": 1.00270795, "ECCENTRICITY": 0.0001868, "INCLINATION": 0.049, "RA_OF_ASC_NODE": 235.0759, "ARG_OF_PERICENTER": 307.7047, "MEAN_ANOMALY": 114.3265, "EPHEMERIS_TYPE": 0, "CLASSIFICATION_TYPE": "U", "NORAD_CAT_ID": 54225, "ELEMENT_SET_NO": 999, "REV_AT_EPOCH": 558, "BSTAR": 0, "MEAN_MOTION_DOT": 9.4e-07, "MEAN_MOTION_DDOT": 0}, "tle": {"line1": "1 54225U 22146A   25345.56553485  .00000094  00000+0  00000+0 0  9994", "line2": "2 54225   0.0490 235.0759 0001868 307.7047 114.3265  1.00270795  5586"}}, "geometry": {"type": "Point", "coordinates": [151.79983572903285, -0.04225418937886374]}}, {"type": "Feature", "properties": {"norad_id": 54259, "name": "EUTELSAT 10B", "group": "eutelsat", "lat": 0.05149287718603177, "lon": 148.78003614553165, "alt_km": 35783.62600056249, "timestamp": "2025-12-12T03:50:52.088326+00:00", "meta": {"OBJECT_NAME": "EUTELSAT 10B", "OBJECT_ID": "2022-157A", "EPOCH": "2025-12-10T23:51:46.763136", "MEAN_MOTION": 1.00269612, "ECCENTRICITY": 7.44e-05, "INCLINATION": 0.0623, "RA_OF_ASC_NODE": 98.8019, "ARG_OF_PERICENTER": 68.7015, "MEAN_ANOMALY": 280.371, "EPHEMERIS_TYPE": 0, "CLASSIFICATION_TYPE": "U", "NORAD_CAT_ID": 54259, "ELEMENT_SET_NO": 999, "REV_AT_EPOCH": 1114, "BSTAR": 0, "MEAN_MOTION_DOT": 7.3e-07, "MEAN_MOTION_DDOT": 0}, "tle": {"line1": "1 54259U 22157A   25344.99429124  .00000073  00000+0  00000+0 0  9998", "line2": "2 54259   0.0623  98.8019 0000744  68.7015 280.3710  1.00269612 11140"}}, "geometry": {"type": "Point", "coordinates": [148.78003614553165, 0.05149287718603177]}}, {"type": "Feature", "properties": {"norad_id": 59346, "name": "EUTELSAT 36D", "group": "eutelsat", "lat": -0.007651615634148242, "lon": 174.6611315015268, "alt_km": 35788.397394862055, "timestamp": "2025-12-12T03:50:52.088337+00:00", "meta": {"OBJECT_NAME": "EUTELSAT 36D", "OBJECT_ID": "2024-059A", "EPOCH": "2025-12-11T13:40:51.589056", "MEAN_MOTION": 1.00269032, "ECCENTRICITY": 3.942e-05, "INCLINATION": 0.0184, "RA_OF_ASC_NODE": 346.0247, "ARG_OF_PERICENTER": 356.9839, "MEAN_ANOMALY": 338.5802, "EPHEMERIS_TYPE": 0, "CLASSIFICATION_TYPE": "U", "NORAD_CAT_ID": 59346, "ELEMENT_SET_NO": 999, "REV_AT_EPOCH": 626, "BSTAR": 0, "MEAN_MOTION_DOT": 0, "MEAN_MOTION_DDOT": 0}, "tle": {"line1": "1 59346U 24059A   25345.57004154  .00000000  00000+0  00000+0 0  9990", "line2": "2 59346   0.0184 346.0247 0000394 356.9839 338.5802  1.00269032  6263"}}, "geometry": {"type": "Point", "coordinates": [174.6611315015268, -0.007651615634148242]}}]}